MALLIGYONG-1            
1 58400U 23179A   24103.57434769  .00006467  00000+0  28728-3 0  9996
2 58400  97.4119 351.4066 0011071 126.7863 233.4391 15.21822843 21743
